{"type": "FeatureCollection", "features": [ {"type": "Feature", "properties": {"norad_id": 34870, "name": "IRIDIUM 33 DEB", "group": "iridium-33-debris", "lat": -80.07638524240281, "lon": -74.28985186910496, "alt_km": 658.0275919908236, "timestamp": "2025-12-27T10:28:59.179513+00:00", "meta": {"OBJECT_NAME": "IRIDIUM 33 DEB", "OBJECT_ID": "1997-051MQ", "EPOCH": "2025-12-27T02:46:31.066176", "MEAN_MOTION": 14.76712058, "ECCENTRICITY": 0.0018424, "INCLINATION": 86.3107, "RA_OF_ASC_NODE": 307.499, "ARG_OF_PERICENTER": 132.9493, "MEAN_ANOMALY": 239.9601, "EPHEMERIS_TYPE": 0, "CLASSIFICATION_TYPE": "U", "NORAD_CAT_ID": 34870, "ELEMENT_SET_NO": 999, "REV_AT_EPOCH": 89123, "BSTAR": 0.0017741, "MEAN_MOTION_DOT": 0.00012485, "MEAN_MOTION_DDOT": 0}, "tle": {"line1": "1 34870U 97051MQ  25361.11563734  .00012485  00000+0  17741-2 0  9992", "line2": "2 34870  86.3107 307.4990 0018424 132.9493 239.9601 14.76712058891235"}}, "geometry": {"type": "Point", "coordinates": [-74.28985186910496, -80.07638524240281]}}, {"type": "Feature", "properties": {"norad_id": 34896, "name": "IRIDIUM 33 DEB", "group": "iridium-33-debris", "lat": -59.52160008996133, "lon": -46.16768334778439, "alt_km": 693.2074447048517, "timestamp": "2025-12-27T10:28:59.179522+00:00", "meta": {"OBJECT_NAME": "IRIDIUM 33 DEB", "OBJECT_ID": "1997-051MY", "EPOCH": "2025-12-24T04:12:44.288640", "MEAN_MOTION": 14.66381715, "ECCENTRICITY": 0.00257287, "INCLINATION": 86.3299, "RA_OF_ASC_NODE": 321.5555, "ARG_OF_PERICENTER": 173.6101, "MEAN_ANOMALY": 201.3064, "EPHEMERIS_TYPE": 0, "CLASSIFICATION_TYPE": "U", "NORAD_CAT_ID": 34896, "ELEMENT_SET_NO": 999, "REV_AT_EPOCH": 87787, "BSTAR": 0.00093038371, "MEAN_MOTION_DOT": 5.188e-05, "MEAN_MOTION_DDOT": 0}, "tle": {"line1": "1 34896U 97051MY  25358.17551260  .00005188  00000+0  93038-3 0  9999", "line2": "2 34896  86.3299 321.5555 0025728 173.6101 201.3064 14.66381715877873"}}, "geometry": {"type": "Point", "coordinates": [-46.16768334778439, -59.52160008996133]}}, {"type": "Feature", "properties": {"norad_id": 34926, "name": "IRIDIUM 33 DEB", "group": "iridium-33-debris", "lat": 46.705694138747894, "lon": 177.33285161791125, "alt_km": 721.5184274902904, "timestamp": "2025-12-27T10:28:59.179533+00:00", "meta": {"OBJECT_NAME": "IRIDIUM 33 DEB", "OBJECT_ID": "1997-051NF", "EPOCH": "2025-12-27T00:05:49.475040", "MEAN_MOTION": 14.55078165, "ECCENTRICITY": 0.0074203, "INCLINATION": 86.1304, "RA_OF_ASC_NODE": 1.6534, "ARG_OF_PERICENTER": 243.2233, "MEAN_ANOMALY": 145.2258, "EPHEMERIS_TYPE": 0, "CLASSIFICATION_TYPE": "U", "NORAD_CAT_ID": 34926, "ELEMENT_SET_NO": 999, "REV_AT_EPOCH": 86664, "BSTAR": 0.0066537, "MEAN_MOTION_DOT": 0.00029892, "MEAN_MOTION_DDOT": 0}, "tle": {"line1": "1 34926U 97051NF  25361.00404485  .00029892  00000+0  66537-2 0  9996", "line2": "2 34926  86.1304   1.6534 0074203 243.2233 145.2258 14.55078165866641"}}, "geometry": {"type": "Point", "coordinates": [177.33285161791125, 46.705694138747894]}}, {"type": "Feature", "properties": {"norad_id": 34985, "name": "IRIDIUM 33 DEB", "group": "iridium-33-debris", "lat": -52.16934599627612, "lon": 45.91749207667469, "alt_km": 770.2234980157627, "timestamp": "2025-12-27T10:28:59.179543+00:00", "meta": {"OBJECT_NAME": "IRIDIUM 33 DEB", "OBJECT_ID": "1997-051NR", "EPOCH": "2025-12-26T21:58:10.172064", "MEAN_MOTION": 14.42068347, "ECCENTRICITY": 0.0022221, "INCLINATION": 86.3683, "RA_OF_ASC_NODE": 50.8313, "ARG_OF_PERICENTER": 172.8188, "MEAN_ANOMALY": 309.665, "EPHEMERIS_TYPE": 0, "CLASSIFICATION_TYPE": "U", "NORAD_CAT_ID": 34985, "ELEMENT_SET_NO": 999, "REV_AT_EPOCH": 87379, "BSTAR": 0.00068645, "MEAN_MOTION_DOT": 2.28e-05, "MEAN_MOTION_DDOT": 0}, "tle": {"line1": "1 34985U 97051NR  25360.91539551  .00002280  00000+0  68645-3 0  9998", "line2": "2 34985  86.3683  50.8313 0022221 172.8188 309.6650 14.42068347873791"}}, "geometry": {"type": "Point", "coordinates": [45.91749207667469, -52.16934599627612]}}, {"type": "Feature", "properties": {"norad_id": 35051, "name": "IRIDIUM 33 DEB", "group": "iridium-33-debris", "lat": 4.136301796067747, "lon": -177.80980809959016, "alt_km": 740.3211633921201, "timestamp": "2025-12-27T10:28:59.179553+00:00", "meta": {"OBJECT_NAME": "IRIDIUM 33 DEB", "OBJECT_ID": "1997-051NX", "EPOCH": "2025-12-22T18:31:37.744896", "MEAN_MOTION": 14.47639956, "ECCENTRICITY": 0.0010302, "INCLINATION": 86.324, "RA_OF_ASC_NODE": 4.4893, "ARG_OF_PERICENTER": 63.2582, "MEAN_ANOMALY": 296.9674, "EPHEMERIS_TYPE": 0, "CLASSIFICATION_TYPE": "U", "NORAD_CAT_ID": 35051, "ELEMENT_SET_NO": 999, "REV_AT_EPOCH": 87141, "BSTAR": 0.00060447572, "MEAN_MOTION_DOT": 2.248e-05, "MEAN_MOTION_DDOT": 0}, "tle": {"line1": "1 35051U 97051NX  25356.77196464  .00002248  00000+0  60448-3 0  9991", "line2": "2 35051  86.3240   4.4893 0010302  63.2582 296.9674 14.47639956871417"}}, "geometry": {"type": "Point", "coordinates": [-177.80980809959016, 4.136301796067747]}}, {"type": "Feature", "properties": {"norad_id": 35052, "name": "IRIDIUM 33 DEB", "group": "iridium-33-debris", "lat": -22.630316994689863, "lon": -164.29252444542166, "alt_km": 777.6121258245403, "timestamp": "2025-12-27T10:28:59.179563+00:00", "meta": {"OBJECT_NAME": "IRIDIUM 33 DEB", "OBJECT_ID": "1997-051NY", "EPOCH": "2025-12-26T00:09:21.492000", "MEAN_MOTION": 14.38507246, "ECCENTRICITY": 0.00130035, "INCLINATION": 86.3301, "RA_OF_ASC_NODE": 14.7874, "ARG_OF_PERICENTER": 47.6773, "MEAN_ANOMALY": 312.5525, "EPHEMERIS_TYPE": 0, "CLASSIFICATION_TYPE": "U", "NORAD_CAT_ID": 35052, "ELEMENT_SET_NO": 999, "REV_AT_EPOCH": 87466, "BSTAR": 0.00018800221, "MEAN_MOTION_DOT": 5.94e-06, "MEAN_MOTION_DDOT": 0}, "tle": {"line1": "1 35052U 97051NY  25360.00649875  .00000594  00000+0  18800-3 0  9999", "line2": "2 35052  86.3301  14.7874 0013003  47.6773 312.5525 14.38507246874664"}}, "geometry": {"type": "Point", "coordinates": [-164.29252444542166, -22.630316994689863]}}, {"type": "Feature", "properties": {"norad_id": 35080, "name": "IRIDIUM 33 DEB", "group": "iridium-33-debris", "lat": 52.48847547153985, "lon": 50.29942027912126, "alt_km": 590.1253808707797, "timestamp": "2025-12-27T10:28:59.179573+00:00", "meta": {"OBJECT_NAME": "IRIDIUM 33 DEB", "OBJECT_ID": "1997-051PF", "EPOCH": "2025-12-26T21:19:55.703424", "MEAN_MOTION": 14.87648712, "ECCENTRICITY": 0.0057997, "INCLINATION": 86.2085, "RA_OF_ASC_NODE": 45.606, "ARG_OF_PERICENTER": 130.4806, "MEAN_ANOMALY": 230.1496, "EPHEMERIS_TYPE": 0, "CLASSIFICATION_TYPE": "U", "NORAD_CAT_ID": 35080, "ELEMENT_SET_NO": 999, "REV_AT_EPOCH": 69898, "BSTAR": 0.0073607, "MEAN_MOTION_DOT": 0.00069659, "MEAN_MOTION_DDOT": 0}, "tle": {"line1": "1 35080U 97051PF  25360.88883916  .00069659  00000+0  73607-2 0  9994", "line2": "2 35080  86.2085  45.6060 0057997 130.4806 230.1496 14.87648712698980"}}, "geometry": {"type": "Point", "coordinates": [50.29942027912126, 52.48847547153985]}}, {"type": "Feature", "properties": {"norad_id": 35297, "name": "IRIDIUM 33 DEB", "group": "iridium-33-debris", "lat": 76.6980761171722, "lon": -139.02423446019202, "alt_km": 721.3503030753645, "timestamp": "2025-12-27T10:28:59.179583+00:00", "meta": {"OBJECT_NAME": "IRIDIUM 33 DEB", "OBJECT_ID": "1997-051PM", "EPOCH": "2025-12-26T10:44:46.667040", "MEAN_MOTION": 14.4521519, "ECCENTRICITY": 0.0018076, "INCLINATION": 86.3846, "RA_OF_ASC_NODE": 56.909, "ARG_OF_PERICENTER": 100.7298, "MEAN_ANOMALY": 259.594, "EPHEMERIS_TYPE": 0, "CLASSIFICATION_TYPE": "U", "NORAD_CAT_ID": 35297, "ELEMENT_SET_NO": 999, "REV_AT_EPOCH": 70624, "BSTAR": 0.00060666, "MEAN_MOTION_DOT": 2.149e-05, "MEAN_MOTION_DDOT": 0}, "tle": {"line1": "1 35297U 97051PM  25360.44776235  .00002149  00000+0  60666-3 0  9994", "line2": "2 35297  86.3846  56.9090 0018076 100.7298 259.5940 14.45215190706246"}}, "geometry": {"type": "Point", "coordinates": [-139.02423446019202, 76.6980761171722]}}, {"type": "Feature", "properties": {"norad_id": 35299, "name": "IRIDIUM 33 DEB", "group": "iridium-33-debris", "lat": 10.330127341873629, "lon": -153.89117374870744, "alt_km": 773.8226399126934, "timestamp": "2025-12-27T10:28:59.179593+00:00", "meta": {"OBJECT_NAME": "IRIDIUM 33 DEB", "OBJECT_ID": "1997-051PP", "EPOCH": "2025-12-27T01:30:21.708864", "MEAN_MOTION": 14.40934949, "ECCENTRICITY": 0.0058407, "INCLINATION": 86.2878, "RA_OF_ASC_NODE": 26.9497, "ARG_OF_PERICENTER": 56.6826, "MEAN_ANOMALY": 333.1612, "EPHEMERIS_TYPE": 0, "CLASSIFICATION_TYPE": "U", "NORAD_CAT_ID": 35299, "ELEMENT_SET_NO": 999, "REV_AT_EPOCH": 86537, "BSTAR": 0.0009817, "MEAN_MOTION_DOT": 3.234e-05, "MEAN_MOTION_DDOT": 0}, "tle": {"line1": "1 35299U 97051PP  25361.06275126  .00003234  00000+0  98170-3 0  9995", "line2": "2 35299  86.2878  26.9497 0058407  56.6826 333.1612 14.40934949865378"}}, "geometry": {"type": "Point", "coordinates": [-153.89117374870744, 10.330127341873629]}}, {"type": "Feature", "properties": {"norad_id": 35480, "name": "IRIDIUM 33 DEB", "group": "iridium-33-debris", "lat": 18.715233186095293, "lon": 19.775787768729685, "alt_km": 718.3514952621681, "timestamp": "2025-12-27T10:28:59.179602+00:00", "meta": {"OBJECT_NAME": "IRIDIUM 33 DEB", "OBJECT_ID": "1997-051QA", "EPOCH": "2025-12-26T19:29:20.805504", "MEAN_MOTION": 14.49821486, "ECCENTRICITY": 0.00157721, "INCLINATION": 86.3559, "RA_OF_ASC_NODE": 18.8095, "ARG_OF_PERICENTER": 63.8067, "MEAN_ANOMALY": 296.4757, "EPHEMERIS_TYPE": 0, "CLASSIFICATION_TYPE": "U", "NORAD_CAT_ID": 35480, "ELEMENT_SET_NO": 999, "REV_AT_EPOCH": 87235, "BSTAR": 0.00059301191, "MEAN_MOTION_DOT": 2.31e-05, "MEAN_MOTION_DDOT": 0}, "tle": {"line1": "1 35480U 97051QA  25360.81204636  .00002310  00000+0  59301-3 0  9994", "line2": "2 35480  86.3559  18.8095 0015772  63.8067 296.4757 14.49821486872353"}}, "geometry": {"type": "Point", "coordinates": [19.775787768729685, 18.715233186095293]}}]}